{"type": "FeatureCollection", "features": [{"type": "Feature", "geometry": {"type": "Polygon", "coordinates": [[[-96.55100462370856, 32.68183815516813], [-96.5506449417685, 32.681572656829296], [-96.5495392819176, 32.68059136618856], [-96.5490534478358, 32.6809841563285], [-96.54894955459544, 32.68089007072413], [-96.54995369696965, 32.68005642185979], [-96.54947832090461, 32.67964577815223], [-96.55035385232824, 32.678911449754885], [-96.54955806557919, 32.67822525530695], [-96.55410354531507, 32.67686446155475], [-96.5544760769327, 32.67735117095554], [-96.5544924524806, 32.67764223744158], [-96.55491186869216, 32.67797523266574], [-96.55465371044495, 32.678242244868656], [-96.55481191494681, 32.67833867322627], [-96.55452118737867, 32.67875475338114], [-96.55423657277606, 32.67936506084996], [-96.55405423639833, 32.679306572359685], [-96.55375690836132, 32.67994319997794], [-96.55331867650936, 32.68046775069184], [-96.55296372912869, 32.680674210580676], [-96.55215482252007, 32.68091929744583], [-96.5518807386746, 32.6810421399409], [-96.55162388418564, 32.68122298259264], [-96.55123282989592, 32.68163402654954], [-96.55101722180413, 32.681771277300285], [-96.55100462370856, 32.68183815516813]]]}, "properties": {"title": "#5 STONEHAVEN PH 5 | 114 Future Lots", "description": "Seagoville | Single-Family | Total 125 | Built 11 | Future Lots 114 | Future Units 114 | 11_parcels_with_year_built_since_2024; 11_parcels_with_incomplete_official_structure_records", "feature_role": "project_boundary", "legend_category": "Top 5 Active Residential", "rank": 5, "project_id": "DCAD-SUBD-04984-5d0ded0970", "subdivision_number": "04984", "subdivision_name": "STONEHAVEN PH 5", "city": "Seagoville", "housing_type": "Single-Family", "total_lots": 125, "built_lots": 11, "future_lots": 114, "future_units": 114, "activity_status": "active_residential", "active_evidence": "11_parcels_with_year_built_since_2024; 11_parcels_with_incomplete_official_structure_records", "match_confidence": 1.0, "review_status": "high_confidence_spatial_subset", "source_snapshot_date": "GIS parcel 2026-07-10; subdivision 2026-06-27; appraisal retrieved 2026-08-13 (2027 current)", "stroke": "#8B1E2B", "stroke-width": 3, "stroke-opacity": 1.0, "fill": "#E63946", "fill-opacity": 0.58}}, {"type": "Feature", "geometry": {"type": "Polygon", "coordinates": [[[-96.52325624911924, 32.9692561421596], [-96.52331781857526, 32.969270490762014], [-96.52326708067646, 32.96958683553028], [-96.52332962409582, 32.9699016748138], [-96.52369975980818, 32.970549414477965], [-96.52341942797507, 32.970692144792054], [-96.51725317194581, 32.97116161816394], [-96.51735209891353, 32.966742530669585], [-96.51994723285804, 32.96571917271675], [-96.52007181292007, 32.965101642479475], [-96.51992126848393, 32.96484484921362], [-96.51992934513636, 32.96475376154198], [-96.52012786917489, 32.96457748886513], [-96.51995102780269, 32.96450923770584], [-96.52019267384621, 32.964277993248295], [-96.52049888166171, 32.96431359514858], [-96.52031764058509, 32.964599980485545], [-96.52035631740058, 32.96491439320169], [-96.5207779442639, 32.96525857734267], [-96.52125076913909, 32.966311971436724], [-96.52181411651193, 32.96690006081924], [-96.52343889449672, 32.96821162685196], [-96.52351910416323, 32.968506324324466], [-96.52372862742857, 32.968801039617844], [-96.52325624911924, 32.9692561421596]]]}, "properties": {"title": "#4 TRAILS AT COTTONWOOD CREEK PH 1 | 116 Future Lots", "description": "Rowlett | Single-Family | Total 225 | Built 109 | Future Lots 116 | Future Units not quantified | 109_parcels_with_year_built_since_2024; 4_parcels_with_incomplete_official_structure_records", "feature_role": "project_boundary", "legend_category": "Top 5 Active Residential", "rank": 4, "project_id": "DCAD-SUBD-02261-c35790b172", "subdivision_number": "02261", "subdivision_name": "TRAILS AT COTTONWOOD CREEK PH 1", "city": "Rowlett", "housing_type": "Single-Family", "total_lots": 225, "built_lots": 109, "future_lots": 116, "future_units": null, "activity_status": "active_residential", "active_evidence": "109_parcels_with_year_built_since_2024; 4_parcels_with_incomplete_official_structure_records", "match_confidence": 1.0, "review_status": "high_confidence_spatial_subset", "source_snapshot_date": "GIS parcel 2026-07-10; subdivision 2026-06-27; appraisal retrieved 2026-08-13 (2027 current)", "stroke": "#8B1E2B", "stroke-width": 3, "stroke-opacity": 1.0, "fill": "#E63946", "fill-opacity": 0.58}}, {"type": "Feature", "geometry": {"type": "Polygon", "coordinates": [[[-96.54231220758717, 32.66054727945716], [-96.54283097433371, 32.66102112695328], [-96.54330762942588, 32.660634592000385], [-96.54336994830106, 32.66048525662346], [-96.5433660523383, 32.660236451808316], [-96.54404996023214, 32.66034736686334], [-96.54437081249984, 32.660622321757494], [-96.5445688790291, 32.66045963626513], [-96.54530800080168, 32.66109987189787], [-96.54411396502971, 32.662056098594874], [-96.54450840775756, 32.66240017164122], [-96.54303181473223, 32.663611254075256], [-96.54228912667644, 32.662964793285475], [-96.5408829842559, 32.66409225897627], [-96.53961725542472, 32.662989848598066], [-96.53760955816244, 32.664637099187935], [-96.53644611632254, 32.66361977480767], [-96.53891576554793, 32.66162863033097], [-96.53925053735942, 32.66191703536956], [-96.54125045920848, 32.66026343872583], [-96.54138229025718, 32.660632944574076], [-96.5413519731192, 32.66065884937594], [-96.54146539702114, 32.66075703875828], [-96.54153779025377, 32.66070322616207], [-96.54180334647565, 32.66093443592874], [-96.54204808725098, 32.66074795075955], [-96.54199758878033, 32.66069916395501], [-96.54231220758717, 32.66054727945716]]]}, "properties": {"title": "#3 COTTONWOOD CREEK | 158 Future Lots", "description": "Seagoville | Single-Family | Total 181 | Built 23 | Future Lots 158 | Future Units 158 | 23_parcels_with_year_built_since_2024; 1_parcels_with_incomplete_official_structure_records", "feature_role": "project_boundary", "legend_category": "Top 5 Active Residential", "rank": 3, "project_id": "DCAD-SUBD-01047-366a6a4eb2", "subdivision_number": "01047", "subdivision_name": "COTTONWOOD CREEK", "city": "Seagoville", "housing_type": "Single-Family", "total_lots": 181, "built_lots": 23, "future_lots": 158, "future_units": 158, "activity_status": "active_residential", "active_evidence": "23_parcels_with_year_built_since_2024; 1_parcels_with_incomplete_official_structure_records", "match_confidence": 0.99991, "review_status": "high_confidence_spatial_subset", "source_snapshot_date": "GIS parcel 2026-07-10; subdivision 2026-06-27; appraisal retrieved 2026-08-13 (2027 current)", "stroke": "#8B1E2B", "stroke-width": 3, "stroke-opacity": 1.0, "fill": "#E63946", "fill-opacity": 0.58}}, {"type": "Feature", "geometry": {"type": "Polygon", "coordinates": [[[-96.8996219011921, 32.549879317203825], [-96.89962294247808, 32.54981637672565], [-96.90264758197732, 32.54982531255318], [-96.90265008310072, 32.55040065256959], [-96.90592205634167, 32.55040741522239], [-96.90592519709688, 32.55104905297934], [-96.90659744533674, 32.5510505133794], [-96.90656957398862, 32.55017646357228], [-96.90632672306018, 32.54985301493374], [-96.90586502763577, 32.54985278588941], [-96.90586579340375, 32.54931161110808], [-96.90809299012575, 32.5493169894276], [-96.9081074469769, 32.55214274660573], [-96.90760741191295, 32.55191294611285], [-96.90719567579531, 32.55248666140811], [-96.90671201455633, 32.55187219138478], [-96.90660894800088, 32.5515749503994], [-96.90659262702067, 32.5513274291755], [-96.90639795203785, 32.55132248409178], [-96.9063967723767, 32.55141517056123], [-96.9064371562975, 32.55169071379755], [-96.90654180998256, 32.551953844293855], [-96.90689390058132, 32.552376786750216], [-96.90724821295144, 32.55259696236461], [-96.90721006265561, 32.55251760970052], [-96.907499974392, 32.55263381818549], [-96.90802532164024, 32.55270956774213], [-96.90802541881514, 32.55276454225868], [-96.90810979753789, 32.55276367066354], [-96.90811357033674, 32.55323127914621], [-96.90665287608287, 32.55323439350287], [-96.90666770764548, 32.55265781406726], [-96.90400427686279, 32.55266749507755], [-96.90400850693605, 32.55362870394584], [-96.89963196197205, 32.553639688389076], [-96.8996219011921, 32.549879317203825]]]}, "properties": {"title": "#2 ADDISON HILLS | 168 Future Lots", "description": "Cedar Hill | Single-Family | Total 253 | Built 85 | Future Lots 168 | Future Units 168 | 85_parcels_with_year_built_since_2024; 18_parcels_with_incomplete_official_structure_records", "feature_role": "project_boundary", "legend_category": "Top 5 Active Residential", "rank": 2, "project_id": "DCAD-SUBD-00113-d2b54dc855", "subdivision_number": "00113", "subdivision_name": "ADDISON HILLS", "city": "Cedar Hill", "housing_type": "Single-Family", "total_lots": 253, "built_lots": 85, "future_lots": 168, "future_units": 168, "activity_status": "active_residential", "active_evidence": "85_parcels_with_year_built_since_2024; 18_parcels_with_incomplete_official_structure_records", "match_confidence": 0.99982, "review_status": "high_confidence_spatial_subset", "source_snapshot_date": "GIS parcel 2026-07-10; subdivision 2026-06-27; appraisal retrieved 2026-08-13 (2027 current)", "stroke": "#8B1E2B", "stroke-width": 3, "stroke-opacity": 1.0, "fill": "#E63946", "fill-opacity": 0.58}}, {"type": "Feature", "geometry": {"type": "Polygon", "coordinates": [[[-96.72690200237035, 32.646673392321084], [-96.72635887456624, 32.64587981479851], [-96.7229208271069, 32.64756745803416], [-96.7229634128911, 32.64684894415131], [-96.7238613888159, 32.645405946467186], [-96.72419408095755, 32.645150253875855], [-96.72450233943258, 32.64433454788326], [-96.72346221094212, 32.6440452630335], [-96.7233534599181, 32.644091113182476], [-96.72571589495145, 32.6410455676133], [-96.72609030460497, 32.6412539326857], [-96.72623443114489, 32.64101868418714], [-96.72702861041353, 32.64153803356183], [-96.72754001851222, 32.64198812110817], [-96.72758943229069, 32.641963900040594], [-96.72767132776492, 32.64208288105382], [-96.72764032594084, 32.642098222711454], [-96.72821275417381, 32.642820072717], [-96.72781566207016, 32.643048453784324], [-96.72808010230406, 32.643425768561556], [-96.72825796651911, 32.64358149449121], [-96.7283671032629, 32.643557697865866], [-96.72844900124663, 32.6436766783593], [-96.72843526361099, 32.64373060751572], [-96.72879754123397, 32.644237924166276], [-96.72893616444746, 32.64420175590604], [-96.7290180637864, 32.64432073602144], [-96.72891248792152, 32.644404845288], [-96.72927306115709, 32.64492866675671], [-96.7297455493469, 32.644728440585205], [-96.72984113730939, 32.64484820087439], [-96.7301947996426, 32.64470670088707], [-96.72985741080028, 32.64487198756274], [-96.73107984205292, 32.64665842241734], [-96.731418246491, 32.646494821061914], [-96.73121834501025, 32.64662443680269], [-96.73151704137754, 32.647056019958434], [-96.72825409393833, 32.64864889345006], [-96.72690200237035, 32.646673392321084]]]}, "properties": {"title": "#1 SOUTHAVEN PH A | 188 Future Lots", "description": "Hutchins | Single-Family | Total 297 | Built 109 | Future Lots 188 | Future Units not quantified | 109_parcels_with_year_built_since_2024; 18_parcels_with_incomplete_official_structure_records", "feature_role": "project_boundary", "legend_category": "Top 5 Active Residential", "rank": 1, "project_id": "DCAD-SUBD-02325-6115a15b72", "subdivision_number": "02325", "subdivision_name": "SOUTHAVEN PH A", "city": "Hutchins", "housing_type": "Single-Family", "total_lots": 297, "built_lots": 109, "future_lots": 188, "future_units": null, "activity_status": "active_residential", "active_evidence": "109_parcels_with_year_built_since_2024; 18_parcels_with_incomplete_official_structure_records", "match_confidence": 1.0, "review_status": "high_confidence_spatial_subset", "source_snapshot_date": "GIS parcel 2026-07-10; subdivision 2026-06-27; appraisal retrieved 2026-08-13 (2027 current)", "stroke": "#8B1E2B", "stroke-width": 3, "stroke-opacity": 1.0, "fill": "#E63946", "fill-opacity": 0.58}}, {"type": "Feature", "geometry": {"type": "Point", "coordinates": [-96.7267613, 32.6448377]}, "properties": {"title": "#1 SOUTHAVEN PH A | 188 Future Lots", "description": "Hutchins | Single-Family | Total 297 | Built 109 | Future Lots 188 | Future Units not quantified | 109_parcels_with_year_built_since_2024; 18_parcels_with_incomplete_official_structure_records", "feature_role": "top5_rank_marker", "legend_category": "Top 5 Rank Marker", "rank": 1, "project_id": "DCAD-SUBD-02325-6115a15b72", "subdivision_number": "02325", "subdivision_name": "SOUTHAVEN PH A", "city": "Hutchins", "housing_type": "Single-Family", "total_lots": 297, "built_lots": 109, "future_lots": 188, "future_units": null, "activity_status": "active_residential", "active_evidence": "109_parcels_with_year_built_since_2024; 18_parcels_with_incomplete_official_structure_records", "match_confidence": 1.0, "review_status": "high_confidence_spatial_subset", "source_snapshot_date": "GIS parcel 2026-07-10; subdivision 2026-06-27; appraisal retrieved 2026-08-13 (2027 current)", "marker-color": "#E63946", "marker-size": "large", "marker-symbol": "1"}}, {"type": "Feature", "geometry": {"type": "Point", "coordinates": [-96.9030138, 32.5514675]}, "properties": {"title": "#2 ADDISON HILLS | 168 Future Lots", "description": "Cedar Hill | Single-Family | Total 253 | Built 85 | Future Lots 168 | Future Units 168 | 85_parcels_with_year_built_since_2024; 18_parcels_with_incomplete_official_structure_records", "feature_role": "top5_rank_marker", "legend_category": "Top 5 Rank Marker", "rank": 2, "project_id": "DCAD-SUBD-00113-d2b54dc855", "subdivision_number": "00113", "subdivision_name": "ADDISON HILLS", "city": "Cedar Hill", "housing_type": "Single-Family", "total_lots": 253, "built_lots": 85, "future_lots": 168, "future_units": 168, "activity_status": "active_residential", "active_evidence": "85_parcels_with_year_built_since_2024; 18_parcels_with_incomplete_official_structure_records", "match_confidence": 0.99982, "review_status": "high_confidence_spatial_subset", "source_snapshot_date": "GIS parcel 2026-07-10; subdivision 2026-06-27; appraisal retrieved 2026-08-13 (2027 current)", "marker-color": "#E63946", "marker-size": "large", "marker-symbol": "2"}}, {"type": "Feature", "geometry": {"type": "Point", "coordinates": [-96.5411408, 32.662486]}, "properties": {"title": "#3 COTTONWOOD CREEK | 158 Future Lots", "description": "Seagoville | Single-Family | Total 181 | Built 23 | Future Lots 158 | Future Units 158 | 23_parcels_with_year_built_since_2024; 1_parcels_with_incomplete_official_structure_records", "feature_role": "top5_rank_marker", "legend_category": "Top 5 Rank Marker", "rank": 3, "project_id": "DCAD-SUBD-01047-366a6a4eb2", "subdivision_number": "01047", "subdivision_name": "COTTONWOOD CREEK", "city": "Seagoville", "housing_type": "Single-Family", "total_lots": 181, "built_lots": 23, "future_lots": 158, "future_units": 158, "activity_status": "active_residential", "active_evidence": "23_parcels_with_year_built_since_2024; 1_parcels_with_incomplete_official_structure_records", "match_confidence": 0.99991, "review_status": "high_confidence_spatial_subset", "source_snapshot_date": "GIS parcel 2026-07-10; subdivision 2026-06-27; appraisal retrieved 2026-08-13 (2027 current)", "marker-color": "#E63946", "marker-size": "large", "marker-symbol": "3"}}, {"type": "Feature", "geometry": {"type": "Point", "coordinates": [-96.5198475, 32.9673272]}, "properties": {"title": "#4 TRAILS AT COTTONWOOD CREEK PH 1 | 116 Future Lots", "description": "Rowlett | Single-Family | Total 225 | Built 109 | Future Lots 116 | Future Units not quantified | 109_parcels_with_year_built_since_2024; 4_parcels_with_incomplete_official_structure_records", "feature_role": "top5_rank_marker", "legend_category": "Top 5 Rank Marker", "rank": 4, "project_id": "DCAD-SUBD-02261-c35790b172", "subdivision_number": "02261", "subdivision_name": "TRAILS AT COTTONWOOD CREEK PH 1", "city": "Rowlett", "housing_type": "Single-Family", "total_lots": 225, "built_lots": 109, "future_lots": 116, "future_units": null, "activity_status": "active_residential", "active_evidence": "109_parcels_with_year_built_since_2024; 4_parcels_with_incomplete_official_structure_records", "match_confidence": 1.0, "review_status": "high_confidence_spatial_subset", "source_snapshot_date": "GIS parcel 2026-07-10; subdivision 2026-06-27; appraisal retrieved 2026-08-13 (2027 current)", "marker-color": "#E63946", "marker-size": "large", "marker-symbol": "4"}}, {"type": "Feature", "geometry": {"type": "Point", "coordinates": [-96.5519371, 32.6793445]}, "properties": {"title": "#5 STONEHAVEN PH 5 | 114 Future Lots", "description": "Seagoville | Single-Family | Total 125 | Built 11 | Future Lots 114 | Future Units 114 | 11_parcels_with_year_built_since_2024; 11_parcels_with_incomplete_official_structure_records", "feature_role": "top5_rank_marker", "legend_category": "Top 5 Rank Marker", "rank": 5, "project_id": "DCAD-SUBD-04984-5d0ded0970", "subdivision_number": "04984", "subdivision_name": "STONEHAVEN PH 5", "city": "Seagoville", "housing_type": "Single-Family", "total_lots": 125, "built_lots": 11, "future_lots": 114, "future_units": 114, "activity_status": "active_residential", "active_evidence": "11_parcels_with_year_built_since_2024; 11_parcels_with_incomplete_official_structure_records", "match_confidence": 1.0, "review_status": "high_confidence_spatial_subset", "source_snapshot_date": "GIS parcel 2026-07-10; subdivision 2026-06-27; appraisal retrieved 2026-08-13 (2027 current)", "marker-color": "#E63946", "marker-size": "large", "marker-symbol": "5"}}]}